{
  "type": "FeatureCollection",
  "features": [
    {
      "type": "Feature",
      "properties": {
        "norad_id": 37836,
        "name": "EUTELSAT 16A",
        "group": "eutelsat",
        "lat": 0.06751330797813758,
        "lon": 61.734814205900314,
        "alt_km": 35809.64335373833,
        "timestamp": "2025-12-10T21:43:21.757891+00:00",
        "meta_object_name": "EUTELSAT 16A",
        "meta_object_id": "2011-057A",
        "meta_epoch": "2025-12-10T06:13:38.752320",
        "meta_mean_motion": 1.00271332,
        "meta_eccentricity": 0.0005972,
        "meta_inclination": 0.0586,
        "meta_ra_of_asc_node": 3.873,
        "meta_arg_of_pericenter": 259.4476,
        "meta_mean_anomaly": 285.3275,
        "meta_ephemeris_type": 0,
        "meta_classification_type": "U",
        "meta_norad_cat_id": 37836,
        "meta_element_set_no": 999,
        "meta_rev_at_epoch": 543,
        "meta_bstar": 0,
        "meta_mean_motion_dot": 1.07e-06,
        "meta_mean_motion_ddot": 0,
        "tle_line1": "1 37836U 11057A   25344.25947630  .00000107  00000+0  00000+0 0  9991",
        "tle_line2": "2 37836   0.0586   3.8730 0005972 259.4476 285.3275  1.00271332  5432"
      },
      "geometry": {
        "type": "Point",
        "coordinates": [
          61.734814205900314,
          0.06751330797813758
        ]
      }
    },
    {
      "type": "Feature",
      "properties": {
        "norad_id": 38992,
        "name": "EUTELSAT 21B",
        "group": "eutelsat",
        "lat": 0.0793487516837847,
        "lon": 67.31946523597489,
        "alt_km": 35799.109901945696,
        "timestamp": "2025-12-10T21:43:21.757903+00:00",
        "meta_object_name": "EUTELSAT 21B",
        "meta_object_id": "2012-062B",
        "meta_epoch": "2025-12-10T06:13:38.752320",
        "meta_mean_motion": 1.00271386,
        "meta_eccentricity": 0.000329,
        "meta_inclination": 0.0664,
        "meta_ra_of_asc_node": 0.5578,
        "meta_arg_of_pericenter": 267.7897,
        "meta_mean_anomaly": 285.8968,
        "meta_ephemeris_type": 0,
        "meta_classification_type": "U",
        "meta_norad_cat_id": 38992,
        "meta_element_set_no": 999,
        "meta_rev_at_epoch": 4793,
        "meta_bstar": 0,
        "meta_mean_motion_dot": 1.33e-06,
        "meta_mean_motion_ddot": 0,
        "tle_line1": "1 38992U 12062B   25344.25947630  .00000133  00000+0  00000+0 0  9991",
        "tle_line2": "2 38992   0.0664   0.5578 0003290 267.7897 285.8968  1.00271386 47931"
      },
      "geometry": {
        "type": "Point",
        "coordinates": [
          67.31946523597489,
          0.0793487516837847
        ]
      }
    },
    {
      "type": "Feature",
      "properties": {
        "norad_id": 39020,
        "name": "EUTELSAT 70B",
        "group": "eutelsat",
        "lat": 0.05714085223348062,
        "lon": 116.1914141716589,
        "alt_km": 35797.46805489067,
        "timestamp": "2025-12-10T21:43:21.757914+00:00",
        "meta_object_name": "EUTELSAT 70B",
        "meta_object_id": "2012-069A",
        "meta_epoch": "2025-12-10T08:41:38.596992",
        "meta_mean_motion": 1.00271755,
        "meta_eccentricity": 0.00043584,
        "meta_inclination": 0.0637,
        "meta_ra_of_asc_node": 340.391,
        "meta_arg_of_pericenter": 263.8653,
        "meta_mean_anomaly": 36.0131,
        "meta_ephemeris_type": 0,
        "meta_classification_type": "U",
        "meta_norad_cat_id": 39020,
        "meta_element_set_no": 999,
        "meta_rev_at_epoch": 4761,
        "meta_bstar": 0,
        "meta_mean_motion_dot": -4e-07,
        "meta_mean_motion_ddot": 0,
        "tle_line1": "1 39020U 12069A   25344.36225228 -.00000040  00000+0  00000+0 0  9993",
        "tle_line2": "2 39020   0.0637 340.3910 0004358 263.8653  36.0131  1.00271755 47615"
      },
      "geometry": {
        "type": "Point",
        "coordinates": [
          116.1914141716589,
          0.05714085223348062
        ]
      }
    },
    {
      "type": "Feature",
      "properties": {
        "norad_id": 39122,
        "name": "EUTELSAT 117 WEST A",
        "group": "eutelsat",
        "lat": -0.026884095714701964,
        "lon": -71.07878101589924,
        "alt_km": 35774.88621775606,
        "timestamp": "2025-12-10T21:43:21.757927+00:00",
        "meta_object_name": "EUTELSAT 117 WEST A",
        "meta_object_id": "2013-012A",
        "meta_epoch": "2025-12-10T08:50:38.825088",
        "meta_mean_motion": 1.00270995,
        "meta_eccentricity": 0.00030278,
        "meta_inclination": 0.0124,
        "meta_ra_of_asc_node": 358.5281,
        "meta_arg_of_pericenter": 263.2322,
        "meta_mean_anomaly": 193.4421,
        "meta_ephemeris_type": 0,
        "meta_classification_type": "U",
        "meta_norad_cat_id": 39122,
        "meta_element_set_no": 999,
        "meta_rev_at_epoch": 4654,
        "meta_bstar": 0,
        "meta_mean_motion_dot": -9e-08,
        "meta_mean_motion_ddot": 0,
        "tle_line1": "1 39122U 13012A   25344.36850492 -.00000009  00000+0  00000+0 0  9997",
        "tle_line2": "2 39122   0.0124 358.5281 0003027 263.2322 193.4421  1.00270995 46546"
      },
      "geometry": {
        "type": "Point",
        "coordinates": [
          -71.07878101589924,
          -0.026884095714701964
        ]
      }
    },
    {
      "type": "Feature",
      "properties": {
        "norad_id": 39163,
        "name": "EUTELSAT 7B",
        "group": "eutelsat",
        "lat": 0.05913013841939193,
        "lon": 52.75252547132577,
        "alt_km": 35788.50108357242,
        "timestamp": "2025-12-10T21:43:21.757939+00:00",
        "meta_object_name": "EUTELSAT 7B",
        "meta_object_id": "2013-022A",
        "meta_epoch": "2025-12-10T06:21:38.695680",
        "meta_mean_motion": 1.00272011,
        "meta_eccentricity": 0.00045881,
        "meta_inclination": 0.0716,
        "meta_ra_of_asc_node": 16.4121,
        "meta_arg_of_pericenter": 298.9676,
        "meta_mean_anomaly": 226.2631,
        "meta_ephemeris_type": 0,
        "meta_classification_type": "U",
        "meta_norad_cat_id": 39163,
        "meta_element_set_no": 999,
        "meta_rev_at_epoch": 4606,
        "meta_bstar": 0,
        "meta_mean_motion_dot": 5.1e-07,
        "meta_mean_motion_ddot": 0,
        "tle_line1": "1 39163U 13022A   25344.26503120  .00000051  00000+0  00000+0 0  9991",
        "tle_line2": "2 39163   0.0716  16.4121 0004588 298.9676 226.2631  1.00272011 46067"
      },
      "geometry": {
        "type": "Point",
        "coordinates": [
          52.75252547132577,
          0.05913013841939193
        ]
      }
    },
    {
      "type": "Feature",
      "properties": {
        "norad_id": 39612,
        "name": "EXPRESS-AT1",
        "group": "eutelsat",
        "lat": 0.013620823698344907,
        "lon": 101.69587555465627,
        "alt_km": 35786.90705389368,
        "timestamp": "2025-12-10T21:43:21.757951+00:00",
        "meta_object_name": "EXPRESS-AT1",
        "meta_object_id": "2014-010A",
        "meta_epoch": "2025-12-10T12:40:38.892288",
        "meta_mean_motion": 1.00270745,
        "meta_eccentricity": 5.265e-05,
        "meta_inclination": 0.0127,
        "meta_ra_of_asc_node": 295.3549,
        "meta_arg_of_pericenter": 270.9532,
        "meta_mean_anomaly": 119.3483,
        "meta_ephemeris_type": 0,
        "meta_classification_type": "U",
        "meta_norad_cat_id": 39612,
        "meta_element_set_no": 999,
        "meta_rev_at_epoch": 4292,
        "meta_bstar": 0,
        "meta_mean_motion_dot": 8.3e-07,
        "meta_mean_motion_ddot": 0,
        "tle_line1": "1 39612U 14010A   25344.52822792  .00000083  00000+0  00000+0 0  9991",
        "tle_line2": "2 39612   0.0127 295.3549 0000526 270.9532 119.3483  1.00270745 42923"
      },
      "geometry": {
        "type": "Point",
        "coordinates": [
          101.69587555465627,
          0.013620823698344907
        ]
      }
    },
    {
      "type": "Feature",
      "properties": {
        "norad_id": 39613,
        "name": "EXPRESS-AT2",
        "group": "eutelsat",
        "lat": -0.015048596431292444,
        "lon": -174.44570756579665,
        "alt_km": 35788.863474457896,
        "timestamp": "2025-12-10T21:43:21.757963+00:00",
        "meta_object_name": "EXPRESS-AT2",
        "meta_object_id": "2014-010B",
        "meta_epoch": "2025-12-10T12:49:38.623584",
        "meta_mean_motion": 1.00269643,
        "meta_eccentricity": 0.00015253,
        "meta_inclination": 0.0161,
        "meta_ra_of_asc_node": 340.0718,
        "meta_arg_of_pericenter": 315.08,
        "meta_mean_anomaly": 116.6304,
        "meta_ephemeris_type": 0,
        "meta_classification_type": "U",
        "meta_norad_cat_id": 39613,
        "meta_element_set_no": 999,
        "meta_rev_at_epoch": 4260,
        "meta_bstar": 0,
        "meta_mean_motion_dot": 0,
        "meta_mean_motion_ddot": 0,
        "tle_line1": "1 39613U 14010B   25344.53447481  .00000000  00000+0  00000+0 0  9990",
        "tle_line2": "2 39613   0.0161 340.0718 0001525 315.0800 116.6304  1.00269643 42609"
      },
      "geometry": {
        "type": "Point",
        "coordinates": [
          -174.44570756579665,
          -0.015048596431292444
        ]
      }
    }
  ]
}